[
    {
        "Altitude(m)": 607895.7826591146,
        "Argument of Periapsis(deg)": 0.0,
        "Eccentricity": 0.0,
        "Inclination(deg)": 60.0,
        "Latitude(deg)": 40.99824553256244,
        "Longitude(deg)": -64.91137961324864,
        "Mean Anomaly(deg)": -229.09089999999998,
        "RAAN(deg)": 245.0,
        "Satellite Name": "Test1 1086",
        "Satellite Number": 1086,
        "Semi-Major Axis(m)": 6980739.136638005,
        "Time(s)": 0
    },
    {
        "Altitude(m)": 607795.0956822926,
        "Argument of Periapsis(deg)": 0.00010418945913296404,
        "Eccentricity": 0.0,
        "Inclination(deg)": 60.0,
        "Latitude(deg)": 40.530570038672046,
        "Longitude(deg)": -64.41478605698748,
        "Mean Anomaly(deg)": -228.4707938545382,
        "RAAN(deg)": 244.99957995086027,
        "Satellite Name": "Test1 1086",
        "Satellite Number": 1086,
        "Semi-Major Axis(m)": 6980739.136638005,
        "Time(s)": 10
    }
]